start=new Date('2021-08-23T00:00:00.000Z').valueOf();
sats=[{"SEMIMAJOR_AXIS":"6925.364","MEAN_MOTION":"15.06394844","TLE_LINE1":"1 47794U 21018H   21234.85414934 -.00001080  00000-0 -53631-4 0  9996","CENTER_NAME":"EARTH","PERIAPSIS":"545.672","BSTAR":"-0.00005363100000","INCLINATION":"53.0569","ELEMENT_SET_NO":"999","RCS_SIZE":"LARGE","MEAN_MOTION_DOT":"-0.00001080","TLE_LINE2":"2 47794  53.0569 122.8975 0002249  83.1942 276.9303 15.06394844 26708","GP_ID":"183272280","OBJECT_ID":"2021-018H","DECAY_DATE":null,"EPHEMERIS_TYPE":"0","COUNTRY_CODE":"US","REV_AT_EPOCH":"2670","MEAN_ANOMALY":"276.9303","MEAN_MOTION_DDOT":"0.0000000000000","REF_FRAME":"TEME","EPOCH":"2021-08-22T20:29:58.502976","SITE":"AFETR","FILE":"3101563","LAUNCH_DATE":"2021-03-11","ECCENTRICITY":"0.00022490","CLASSIFICATION_TYPE":"U","NORAD_CAT_ID":"47794","OBJECT_NAME":"STARLINK-2341","ARG_OF_PERICENTER":"83.1942","APOAPSIS":"548.787","OBJECT_TYPE":"PAYLOAD","TIME_SYSTEM":"UTC","MEAN_ELEMENT_THEORY":"SGP4","PERIOD":"95.592","RA_OF_ASC_NODE":"122.8975"},{"ECCENTRICITY":"0.00021890","LAUNCH_DATE":"2021-03-11","CLASSIFICATION_TYPE":"U","FILE":"3101563","REF_FRAME":"TEME","MEAN_MOTION_DDOT":"0.0000000000000","SITE":"AFETR","EPOCH":"2021-08-22T20:14:03.547104","PERIOD":"95.593","MEAN_ELEMENT_THEORY":"SGP4","RA_OF_ASC_NODE":"122.9449","APOAPSIS":"548.753","OBJECT_TYPE":"PAYLOAD","TIME_SYSTEM":"UTC","NORAD_CAT_ID":"47795","OBJECT_NAME":"STARLINK-2347","ARG_OF_PERICENTER":"84.3037","PERIAPSIS":"545.721","BSTAR":"-0.00006225900000","INCLINATION":"53.0556","CENTER_NAME":"EARTH","TLE_LINE1":"1 47795U 21018J   21234.84309661 -.00001209  00000-0 -62259-4 0  9995","SEMIMAJOR_AXIS":"6925.372","MEAN_MOTION":"15.06392309","EPHEMERIS_TYPE":"0","COUNTRY_CODE":"US","MEAN_ANOMALY":"275.8201","REV_AT_EPOCH":"2675","DECAY_DATE":null,"OBJECT_ID":"2021-018J","GP_ID":"183272531","ELEMENT_SET_NO":"999","RCS_SIZE":"LARGE","TLE_LINE2":"2 47795  53.0556 122.9449 0002189  84.3037 275.8201 15.06392309 26757","MEAN_MOTION_DOT":"-0.00001209"},{"BSTAR":"0.00006767700000","PERIAPSIS":"545.679","INCLINATION":"53.0565","CENTER_NAME":"EARTH","TLE_LINE1":"1 47796U 21018K   21234.85783320  .00000726  00000-0  67677-4 0  9995","SEMIMAJOR_AXIS":"6925.355","MEAN_MOTION":"15.06397801","EPHEMERIS_TYPE":"0","COUNTRY_CODE":"US","MEAN_ANOMALY":"272.9948","REV_AT_EPOCH":"2670","DECAY_DATE":null,"OBJECT_ID":"2021-018K","GP_ID":"183271279","RCS_SIZE":"LARGE","ELEMENT_SET_NO":"999","TLE_LINE2":"2 47796  53.0565 122.8805 0002225  87.1295 272.9948 15.06397801 26704","MEAN_MOTION_DOT":"0.00000726","ECCENTRICITY":"0.00022250","LAUNCH_DATE":"2021-03-11","CLASSIFICATION_TYPE":"U","FILE":"3101563","MEAN_MOTION_DDOT":"0.0000000000000","REF_FRAME":"TEME","SITE":"AFETR","EPOCH":"2021-08-22T20:35:16.788480","PERIOD":"95.592","MEAN_ELEMENT_THEORY":"SGP4","RA_OF_ASC_NODE":"122.8805","APOAPSIS":"548.761","TIME_SYSTEM":"UTC","OBJECT_TYPE":"PAYLOAD","OBJECT_NAME":"STARLINK-2373","NORAD_CAT_ID":"47796","ARG_OF_PERICENTER":"87.1295"},{"PERIAPSIS":"545.723","BSTAR":"0.00012174000000","INCLINATION":"53.0513","CENTER_NAME":"EARTH","TLE_LINE1":"1 47797U 21018L   21234.76152485  .00001533  00000-0  12174-3 0  9996","MEAN_MOTION":"15.06423601","SEMIMAJOR_AXIS":"6925.276","REV_AT_EPOCH":"2633","MEAN_ANOMALY":"296.2666","EPHEMERIS_TYPE":"0","COUNTRY_CODE":"US","DECAY_DATE":null,"GP_ID":"183271529","OBJECT_ID":"2021-018L","MEAN_MOTION_DOT":"0.00001533","TLE_LINE2":"2 47797  53.0513 148.3114 0002048  63.8534 296.2666 15.06423601 26337","RCS_SIZE":"LARGE","ELEMENT_SET_NO":"999","CLASSIFICATION_TYPE":"U","LAUNCH_DATE":"2021-03-11","ECCENTRICITY":"0.00020480","FILE":"3101563","EPOCH":"2021-08-22T18:16:35.747040","SITE":"AFETR","REF_FRAME":"TEME","MEAN_MOTION_DDOT":"0.0000000000000","RA_OF_ASC_NODE":"148.3114","MEAN_ELEMENT_THEORY":"SGP4","PERIOD":"95.591","OBJECT_TYPE":"PAYLOAD","TIME_SYSTEM":"UTC","APOAPSIS":"548.560","ARG_OF_PERICENTER":"63.8534","NORAD_CAT_ID":"47797","OBJECT_NAME":"STARLINK-2377"},{"FILE":"3101563","REF_FRAME":"TEME","MEAN_MOTION_DDOT":"0.0000000000000","EPOCH":"2021-08-22T20:51:13.056768","SITE":"AFETR","LAUNCH_DATE":"2021-03-11","ECCENTRICITY":"0.00022100","CLASSIFICATION_TYPE":"U","APOAPSIS":"548.771","OBJECT_TYPE":"PAYLOAD","TIME_SYSTEM":"UTC","NORAD_CAT_ID":"47798","OBJECT_NAME":"STARLINK-2379","ARG_OF_PERICENTER":"86.5614","MEAN_ELEMENT_THEORY":"SGP4","PERIOD":"95.593","RA_OF_ASC_NODE":"122.8294","TLE_LINE1":"1 47798U 21018M   21234.86890112 -.00001058  00000-0 -52124-4 0  9998","SEMIMAJOR_AXIS":"6925.375","MEAN_MOTION":"15.06391301","PERIAPSIS":"545.710","BSTAR":"-0.00005212400000","INCLINATION":"53.0550","CENTER_NAME":"EARTH","GP_ID":"183272781","OBJECT_ID":"2021-018M","ELEMENT_SET_NO":"999","RCS_SIZE":"LARGE","MEAN_MOTION_DOT":"-0.00001058","TLE_LINE2":"2 47798  53.0550 122.8294 0002210  86.5614 273.5628 15.06391301 26705","EPHEMERIS_TYPE":"0","COUNTRY_CODE":"US","REV_AT_EPOCH":"2670","MEAN_ANOMALY":"273.5628","DECAY_DATE":null},{"SEMIMAJOR_AXIS":"6925.357","MEAN_MOTION":"15.06397374","TLE_LINE1":"1 47799U 21018N   21234.86520690  .00000912  00000-0  80130-4 0  9994","CENTER_NAME":"EARTH","PERIAPSIS":"545.672","BSTAR":"0.00008013000000","INCLINATION":"53.0568","ELEMENT_SET_NO":"999","RCS_SIZE":"LARGE","TLE_LINE2":"2 47799  53.0568 122.8483 0002238  82.8928 277.2315 15.06397374 26690","MEAN_MOTION_DOT":"0.00000912","OBJECT_ID":"2021-018N","GP_ID":"183273032","DECAY_DATE":null,"COUNTRY_CODE":"US","EPHEMERIS_TYPE":"0","MEAN_ANOMALY":"277.2315","REV_AT_EPOCH":"2669","MEAN_MOTION_DDOT":"0.0000000000000","REF_FRAME":"TEME","SITE":"AFETR","EPOCH":"2021-08-22T20:45:53.876160","FILE":"3101563","ECCENTRICITY":"0.00022380","LAUNCH_DATE":"2021-03-11","CLASSIFICATION_TYPE":"U","OBJECT_NAME":"STARLINK-2380","NORAD_CAT_ID":"47799","ARG_OF_PERICENTER":"82.8928","APOAPSIS":"548.772","OBJECT_TYPE":"PAYLOAD","TIME_SYSTEM":"UTC","PERIOD":"95.592","MEAN_ELEMENT_THEORY":"SGP4","RA_OF_ASC_NODE":"122.8483"},{"LAUNCH_DATE":"2021-03-11","ECCENTRICITY":"0.00024660","CLASSIFICATION_TYPE":"U","MEAN_MOTION_DDOT":"0.0000000000000","REF_FRAME":"TEME","EPOCH":"2021-08-22T22:42:00.887040","SITE":"AFETR","FILE":"3101563","MEAN_ELEMENT_THEORY":"SGP4","PERIOD":"95.695","RA_OF_ASC_NODE":"122.4032","OBJECT_NAME":"STARLINK-2381","NORAD_CAT_ID":"47800","ARG_OF_PERICENTER":"83.8284","APOAPSIS":"553.912","OBJECT_TYPE":"PAYLOAD","TIME_SYSTEM":"UTC","CENTER_NAME":"EARTH","BSTAR":"0.00008518000000","PERIAPSIS":"550.494","INCLINATION":"53.0555","SEMIMAJOR_AXIS":"6930.338","MEAN_MOTION":"15.04773494","TLE_LINE1":"1 47800U 21018P   21234.94584360  .00000937  00000-0  85180-4 0  9997","DECAY_DATE":null,"COUNTRY_CODE":"US","EPHEMERIS_TYPE":"0","REV_AT_EPOCH":"2671","MEAN_ANOMALY":"276.2985","ELEMENT_SET_NO":"999","RCS_SIZE":"LARGE","TLE_LINE2":"2 47800  53.0555 122.4032 0002466  83.8284 276.2985 15.04773494 26718","MEAN_MOTION_DOT":"0.00000937","GP_ID":"183271780","OBJECT_ID":"2021-018P"},{"MEAN_ELEMENT_THEORY":"SGP4","PERIOD":"95.592","RA_OF_ASC_NODE":"127.9425","APOAPSIS":"549.143","OBJECT_TYPE":"PAYLOAD","TIME_SYSTEM":"UTC","NORAD_CAT_ID":"47801","OBJECT_NAME":"STARLINK-2382","ARG_OF_PERICENTER":"86.4968","LAUNCH_DATE":"2021-03-11","ECCENTRICITY":"0.00027920","CLASSIFICATION_TYPE":"U","FILE":"3101563","MEAN_MOTION_DDOT":"0.0000000000000","REF_FRAME":"TEME","EPOCH":"2021-08-22T20:14:41.042976","SITE":"AFETR","COUNTRY_CODE":"US","EPHEMERIS_TYPE":"0","REV_AT_EPOCH":"2663","MEAN_ANOMALY":"273.6340","DECAY_DATE":null,"GP_ID":"183272030","OBJECT_ID":"2021-018Q","ELEMENT_SET_NO":"999","RCS_SIZE":"LARGE","MEAN_MOTION_DOT":"0.00000668","TLE_LINE2":"2 47801  53.0554 127.9425 0002792  86.4968 273.6340 15.06401261 26633","PERIAPSIS":"545.276","BSTAR":"0.00006375400000","INCLINATION":"53.0554","CENTER_NAME":"EARTH","TLE_LINE1":"1 47801U 21018Q   21234.84353059  .00000668  00000-0  63754-4 0  9990","SEMIMAJOR_AXIS":"6925.345","MEAN_MOTION":"15.06401261"},{"FILE":"3101563","EPOCH":"2021-08-22T21:31:38.968320","SITE":"AFETR","MEAN_MOTION_DDOT":"0.0000000000000","REF_FRAME":"TEME","CLASSIFICATION_TYPE":"U","LAUNCH_DATE":"2021-03-11","ECCENTRICITY":"0.00019410","OBJECT_TYPE":"PAYLOAD","TIME_SYSTEM":"UTC","APOAPSIS":"548.572","ARG_OF_PERICENTER":"54.5531","OBJECT_NAME":"STARLINK-2383","NORAD_CAT_ID":"47802","RA_OF_ASC_NODE":"147.7194","MEAN_ELEMENT_THEORY":"SGP4","PERIOD":"95.592","TLE_LINE1":"1 47802U 21018R   21234.89697880 -.00000302  00000-0 -13460-5 0  9996","MEAN_MOTION":"15.06395276","SEMIMAJOR_AXIS":"6925.363","PERIAPSIS":"545.884","BSTAR":"-0.00000134600000","INCLINATION":"53.0580","CENTER_NAME":"EARTH","GP_ID":"183272281","OBJECT_ID":"2021-018R","TLE_LINE2":"2 47802  53.0580 147.7194 0001941  54.5531 305.5639 15.06395276 26367","MEAN_MOTION_DOT":"-0.00000302","ELEMENT_SET_NO":"999","RCS_SIZE":"LARGE","REV_AT_EPOCH":"2636","MEAN_ANOMALY":"305.5639","EPHEMERIS_TYPE":"0","COUNTRY_CODE":"US","DECAY_DATE":null},{"CLASSIFICATION_TYPE":"U","LAUNCH_DATE":"2021-03-11","ECCENTRICITY":"0.00023720","EPOCH":"2021-08-22T16:47:03.376896","SITE":"AFETR","REF_FRAME":"TEME","MEAN_MOTION_DDOT":"0.0000000000000","FILE":"3101563","RA_OF_ASC_NODE":"123.5924","MEAN_ELEMENT_THEORY":"SGP4","PERIOD":"95.592","ARG_OF_PERICENTER":"79.9531","OBJECT_NAME":"STARLINK-2384","NORAD_CAT_ID":"47803","TIME_SYSTEM":"UTC","OBJECT_TYPE":"PAYLOAD","APOAPSIS":"548.859","CENTER_NAME":"EARTH","BSTAR":"0.00006732200000","PERIAPSIS":"545.574","INCLINATION":"53.0563","MEAN_MOTION":"15.06399096","SEMIMAJOR_AXIS":"6925.351","TLE_LINE1":"1 47803U 21018S   21234.69934464  .00000721  00000-0  67322-4 0  9995","DECAY_DATE":null,"REV_AT_EPOCH":"2667","MEAN_ANOMALY":"280.1726","COUNTRY_CODE":"US","EPHEMERIS_TYPE":"0","MEAN_MOTION_DOT":"0.00000721","TLE_LINE2":"2 47803  53.0563 123.5924 0002372  79.9531 280.1726 15.06399096 26675","ELEMENT_SET_NO":"999","RCS_SIZE":"LARGE","GP_ID":"183272532","OBJECT_ID":"2021-018S"}];
